SHIJIAN-6 05A (SJ-6 05A)
1 49961U 21122A   26068.88345882  .00003299  00000+0  27617-3 0  9993
2 49961  97.4012  42.3306 0003221  76.6317 283.5266 14.99085264233873
STARLINK-5518           
1 56469U 23064X   26068.55136380 -.00000730  00000+0 -53396-4 0  9999
2 56469  69.9999 125.0083 0003190 268.3098  91.7695 14.98327015155717
