[{"OBJECT_NAME":"SHIJIAN-6 05A (SJ-6 05A)","OBJECT_ID":"2021-122A","EPOCH":"2026-03-09T21:12:10.842048","MEAN_MOTION":14.99085264,"ECCENTRICITY":0.0003221,"INCLINATION":97.4012,"RA_OF_ASC_NODE":42.3306,"ARG_OF_PERICENTER":76.6317,"MEAN_ANOMALY":283.5266,"EPHEMERIS_TYPE":0,"CLASSIFICATION_TYPE":"U","NORAD_CAT_ID":49961,"ELEMENT_SET_NO":999,"REV_AT_EPOCH":23387,"BSTAR":0.00027617,"MEAN_MOTION_DOT":3.299e-5,"MEAN_MOTION_DDOT":0},{"OBJECT_NAME":"STARLINK-5518","OBJECT_ID":"2023-064X","EPOCH":"2026-03-09T13:13:57.832320","MEAN_MOTION":14.98327015,"ECCENTRICITY":0.00031905,"INCLINATION":69.9999,"RA_OF_ASC_NODE":125.0083,"ARG_OF_PERICENTER":268.3098,"MEAN_ANOMALY":91.7695,"EPHEMERIS_TYPE":0,"CLASSIFICATION_TYPE":"U","NORAD_CAT_ID":56469,"ELEMENT_SET_NO":999,"REV_AT_EPOCH":15571,"BSTAR":-5.3395901e-5,"MEAN_MOTION_DOT":-7.3e-6,"MEAN_MOTION_DDOT":0}]
